SL-14 R/B               
1 16792U 86046B   26027.31614863  .00000833  00000+0  93161-4 0  9995
2 16792  82.4832 119.2746 0023267   8.6110 351.5500 14.85547364120267
SL-14 R/B               
1 16882U 86055B   26027.44769881  .00001044  00000+0  11748-3 0  9995
2 16882  82.5223 165.4232 0020349 107.4336 313.4332 14.85594282113242
AJISAI (EGS)            
1 16908U 86061A   26027.59309697 -.00000075  00000+0  16064-3 0  9992
2 16908  50.0061 219.7204 0011285 181.3564 224.4871 12.44515291462888
COSMOS 1812             
1 17295U 87003A   26027.54447650  .00228352  00000+0  78942-3 0  9998
2 17295  82.4801 241.9930 0001043  36.4709 323.6634 15.88943053137895
SL-14 R/B               
1 17567U 87024B   26027.76861300  .00000857  00000+0  94868-4 0  9993
2 17567  82.5304 131.2183 0019172  40.0767 320.1859 14.86089167 82056
COSMOS 1833             
1 17589U 87027A   26027.51918980  .00000211  00000+0  13850-3 0  9995
2 17589  70.9196  52.5475 0024617 269.1865  90.6435 14.13052162  4500
SL-16 R/B               
1 17590U 87027B   26027.68265447  .00000232  00000+0  13889-3 0  9993
2 17590  71.0039   2.9040 0005803 208.2647 151.8163 14.17160741  9538
SL-14 R/B               
1 17912U 87038B   26027.33828358  .00001001  00000+0  11345-3 0  9991
2 17912  82.5038 335.7505 0017968 304.3758  55.5758 14.85322771 73091
COSMOS 1844             
1 17973U 87041A   26027.52709567 -.00000087  00000+0 -20202-4 0  9991
2 17973  70.8989 121.0011 0028487  83.9786 276.4581 14.14534791997766
SL-14 R/B               
1 18153U 87055B   26027.45705756  .00000831  00000+0  92967-4 0  9997
2 18153  82.4979  27.8909 0021500 146.2473 214.0117 14.85576872 63816
COSMOS 1867             
1 18187U 87060A   26027.50230080  .00000031  00000+0  49437-4 0  9995
2 18187  65.0102  62.0486 0013975 275.4889  84.4601 14.31495853 14040
SL-14 R/B               
1 18749U 88001B   26027.04543046  .00000703  00000+0  78463-4 0  9990
2 18749  82.5103 234.5331 0018603  20.6705 339.5260 14.85477712 35843
