CCSDS_OMM_VERS = 2.0
CREATION_DATE  = 
ORIGINATOR     = 

OBJECT_NAME    = SL-14 R/B
OBJECT_ID      = 1986-046B
CENTER_NAME    = EARTH
REF_FRAME      = TEME
TIME_SYSTEM    = UTC
MEAN_ELEMENT_THEORY = SGP/SGP4

EPOCH          = 2026-01-27T07:35:15.241632
MEAN_MOTION    = 14.85547364
ECCENTRICITY   = .0023267
INCLINATION    = 82.4832
RA_OF_ASC_NODE = 119.2746
ARG_OF_PERICENTER = 8.6110
MEAN_ANOMALY   = 351.5500

EPHEMERIS_TYPE = 0
CLASSIFICATION_TYPE = U
NORAD_CAT_ID   = 16792
ELEMENT_SET_NO = 999
REV_AT_EPOCH   = 12026
BSTAR          = .93161E-4
MEAN_MOTION_DOT = .833E-5
MEAN_MOTION_DDOT = 0

CCSDS_OMM_VERS = 2.0
CREATION_DATE  = 
ORIGINATOR     = 

OBJECT_NAME    = SL-14 R/B
OBJECT_ID      = 1986-055B
CENTER_NAME    = EARTH
REF_FRAME      = TEME
TIME_SYSTEM    = UTC
MEAN_ELEMENT_THEORY = SGP/SGP4

EPOCH          = 2026-01-27T10:44:41.177184
MEAN_MOTION    = 14.85594282
ECCENTRICITY   = .00203491
INCLINATION    = 82.5223
RA_OF_ASC_NODE = 165.4232
ARG_OF_PERICENTER = 107.4336
MEAN_ANOMALY   = 313.4332

EPHEMERIS_TYPE = 0
CLASSIFICATION_TYPE = U
NORAD_CAT_ID   = 16882
ELEMENT_SET_NO = 999
REV_AT_EPOCH   = 11324
BSTAR          = .1174792E-3
MEAN_MOTION_DOT = .1044E-4
MEAN_MOTION_DDOT = 0

CCSDS_OMM_VERS = 2.0
CREATION_DATE  = 
ORIGINATOR     = 

OBJECT_NAME    = AJISAI (EGS)
OBJECT_ID      = 1986-061A
CENTER_NAME    = EARTH
REF_FRAME      = TEME
TIME_SYSTEM    = UTC
MEAN_ELEMENT_THEORY = SGP/SGP4

EPOCH          = 2026-01-27T14:14:03.578208
MEAN_MOTION    = 12.44515291
ECCENTRICITY   = .00112856
INCLINATION    = 50.0061
RA_OF_ASC_NODE = 219.7204
ARG_OF_PERICENTER = 181.3564
MEAN_ANOMALY   = 224.4871

EPHEMERIS_TYPE = 0
CLASSIFICATION_TYPE = U
NORAD_CAT_ID   = 16908
ELEMENT_SET_NO = 999
REV_AT_EPOCH   = 46288
BSTAR          = .16064033E-3
MEAN_MOTION_DOT = -.75E-6
MEAN_MOTION_DDOT = 0

CCSDS_OMM_VERS = 2.0
CREATION_DATE  = 
ORIGINATOR     = 

OBJECT_NAME    = COSMOS 1812
OBJECT_ID      = 1987-003A
CENTER_NAME    = EARTH
REF_FRAME      = TEME
TIME_SYSTEM    = UTC
MEAN_ELEMENT_THEORY = SGP/SGP4

EPOCH          = 2026-01-27T13:04:02.769600
MEAN_MOTION    = 15.88943053
ECCENTRICITY   = .00010436
INCLINATION    = 82.4801
RA_OF_ASC_NODE = 241.9930
ARG_OF_PERICENTER = 36.4709
MEAN_ANOMALY   = 323.6634

EPHEMERIS_TYPE = 0
CLASSIFICATION_TYPE = U
NORAD_CAT_ID   = 17295
ELEMENT_SET_NO = 999
REV_AT_EPOCH   = 13789
BSTAR          = .78942372E-3
MEAN_MOTION_DOT = .228352E-2
MEAN_MOTION_DDOT = 0

CCSDS_OMM_VERS = 2.0
CREATION_DATE  = 
ORIGINATOR     = 

OBJECT_NAME    = SL-14 R/B
OBJECT_ID      = 1987-024B
CENTER_NAME    = EARTH
REF_FRAME      = TEME
TIME_SYSTEM    = UTC
MEAN_ELEMENT_THEORY = SGP/SGP4

EPOCH          = 2026-01-27T18:26:48.163200
MEAN_MOTION    = 14.86089167
ECCENTRICITY   = .0019172
INCLINATION    = 82.5304
RA_OF_ASC_NODE = 131.2183
ARG_OF_PERICENTER = 40.0767
MEAN_ANOMALY   = 320.1859

EPHEMERIS_TYPE = 0
CLASSIFICATION_TYPE = U
NORAD_CAT_ID   = 17567
ELEMENT_SET_NO = 999
REV_AT_EPOCH   = 8205
BSTAR          = .94868E-4
MEAN_MOTION_DOT = .857E-5
MEAN_MOTION_DDOT = 0

CCSDS_OMM_VERS = 2.0
CREATION_DATE  = 
ORIGINATOR     = 

OBJECT_NAME    = COSMOS 1833
OBJECT_ID      = 1987-027A
CENTER_NAME    = EARTH
REF_FRAME      = TEME
TIME_SYSTEM    = UTC
MEAN_ELEMENT_THEORY = SGP/SGP4

EPOCH          = 2026-01-27T12:27:37.998720
MEAN_MOTION    = 14.13052162
ECCENTRICITY   = .0024617
INCLINATION    = 70.9196
RA_OF_ASC_NODE = 52.5475
ARG_OF_PERICENTER = 269.1865
MEAN_ANOMALY   = 90.6435

EPHEMERIS_TYPE = 0
CLASSIFICATION_TYPE = U
NORAD_CAT_ID   = 17589
ELEMENT_SET_NO = 999
REV_AT_EPOCH   = 450
BSTAR          = .13850115E-3
MEAN_MOTION_DOT = .211E-5
MEAN_MOTION_DDOT = 0

CCSDS_OMM_VERS = 2.0
CREATION_DATE  = 
ORIGINATOR     = 

OBJECT_NAME    = SL-16 R/B
OBJECT_ID      = 1987-027B
CENTER_NAME    = EARTH
REF_FRAME      = TEME
TIME_SYSTEM    = UTC
MEAN_ELEMENT_THEORY = SGP/SGP4

EPOCH          = 2026-01-27T16:23:01.346208
MEAN_MOTION    = 14.17160741
ECCENTRICITY   = .0005803
INCLINATION    = 71.0039
RA_OF_ASC_NODE = 2.9040
ARG_OF_PERICENTER = 208.2647
MEAN_ANOMALY   = 151.8163

EPHEMERIS_TYPE = 0
CLASSIFICATION_TYPE = U
NORAD_CAT_ID   = 17590
ELEMENT_SET_NO = 999
REV_AT_EPOCH   = 953
BSTAR          = .13889E-3
MEAN_MOTION_DOT = .232E-5
MEAN_MOTION_DDOT = 0

CCSDS_OMM_VERS = 2.0
CREATION_DATE  = 
ORIGINATOR     = 

OBJECT_NAME    = SL-14 R/B
OBJECT_ID      = 1987-038B
CENTER_NAME    = EARTH
REF_FRAME      = TEME
TIME_SYSTEM    = UTC
MEAN_ELEMENT_THEORY = SGP/SGP4

EPOCH          = 2026-01-27T08:07:07.701312
MEAN_MOTION    = 14.85322771
ECCENTRICITY   = .00179682
INCLINATION    = 82.5038
RA_OF_ASC_NODE = 335.7505
ARG_OF_PERICENTER = 304.3758
MEAN_ANOMALY   = 55.5758

EPHEMERIS_TYPE = 0
CLASSIFICATION_TYPE = U
NORAD_CAT_ID   = 17912
ELEMENT_SET_NO = 999
REV_AT_EPOCH   = 7309
BSTAR          = .11345442E-3
MEAN_MOTION_DOT = .1001E-4
MEAN_MOTION_DDOT = 0

CCSDS_OMM_VERS = 2.0
CREATION_DATE  = 
ORIGINATOR     = 

OBJECT_NAME    = COSMOS 1844
OBJECT_ID      = 1987-041A
CENTER_NAME    = EARTH
REF_FRAME      = TEME
TIME_SYSTEM    = UTC
MEAN_ELEMENT_THEORY = SGP/SGP4

EPOCH          = 2026-01-27T12:39:01.065888
MEAN_MOTION    = 14.14534791
ECCENTRICITY   = .00284879
INCLINATION    = 70.8989
RA_OF_ASC_NODE = 121.0011
ARG_OF_PERICENTER = 83.9786
MEAN_ANOMALY   = 276.4581

EPHEMERIS_TYPE = 0
CLASSIFICATION_TYPE = U
NORAD_CAT_ID   = 17973
ELEMENT_SET_NO = 999
REV_AT_EPOCH   = 99776
BSTAR          = -.20201535E-4
MEAN_MOTION_DOT = -.87E-6
MEAN_MOTION_DDOT = 0

CCSDS_OMM_VERS = 2.0
CREATION_DATE  = 
ORIGINATOR     = 

OBJECT_NAME    = SL-14 R/B
OBJECT_ID      = 1987-055B
CENTER_NAME    = EARTH
REF_FRAME      = TEME
TIME_SYSTEM    = UTC
MEAN_ELEMENT_THEORY = SGP/SGP4

EPOCH          = 2026-01-27T10:58:09.773184
MEAN_MOTION    = 14.85576872
ECCENTRICITY   = .00215003
INCLINATION    = 82.4979
RA_OF_ASC_NODE = 27.8909
ARG_OF_PERICENTER = 146.2473
MEAN_ANOMALY   = 214.0117

EPHEMERIS_TYPE = 0
CLASSIFICATION_TYPE = U
NORAD_CAT_ID   = 18153
ELEMENT_SET_NO = 999
REV_AT_EPOCH   = 6381
BSTAR          = .9296731E-4
MEAN_MOTION_DOT = .831E-5
MEAN_MOTION_DDOT = 0

CCSDS_OMM_VERS = 2.0
CREATION_DATE  = 
ORIGINATOR     = 

OBJECT_NAME    = COSMOS 1867
OBJECT_ID      = 1987-060A
CENTER_NAME    = EARTH
REF_FRAME      = TEME
TIME_SYSTEM    = UTC
MEAN_ELEMENT_THEORY = SGP/SGP4

EPOCH          = 2026-01-27T12:03:18.789120
MEAN_MOTION    = 14.31495853
ECCENTRICITY   = .00139759
INCLINATION    = 65.0102
RA_OF_ASC_NODE = 62.0486
ARG_OF_PERICENTER = 275.4889
MEAN_ANOMALY   = 84.4601

EPHEMERIS_TYPE = 0
CLASSIFICATION_TYPE = U
NORAD_CAT_ID   = 18187
ELEMENT_SET_NO = 999
REV_AT_EPOCH   = 1404
BSTAR          = .49437242E-4
MEAN_MOTION_DOT = .31E-6
MEAN_MOTION_DDOT = 0

CCSDS_OMM_VERS = 2.0
CREATION_DATE  = 
ORIGINATOR     = 

OBJECT_NAME    = SL-14 R/B
OBJECT_ID      = 1988-001B
CENTER_NAME    = EARTH
REF_FRAME      = TEME
TIME_SYSTEM    = UTC
MEAN_ELEMENT_THEORY = SGP/SGP4

EPOCH          = 2026-01-27T01:05:25.191744
MEAN_MOTION    = 14.85477712
ECCENTRICITY   = .00186033
INCLINATION    = 82.5103
RA_OF_ASC_NODE = 234.5331
ARG_OF_PERICENTER = 20.6705
MEAN_ANOMALY   = 339.5260

EPHEMERIS_TYPE = 0
CLASSIFICATION_TYPE = U
NORAD_CAT_ID   = 18749
ELEMENT_SET_NO = 999
REV_AT_EPOCH   = 3584
BSTAR          = .78462988E-4
MEAN_MOTION_DOT = .703E-5
MEAN_MOTION_DDOT = 0

